[Satellite]
VERSION=1.1
NAME=CZ-6A DEB
NICKNAME=CZ-6A DEB
TLE1=1 54561U 22151LM  22342.48844328  .00001413  00000+0  56710-3 0  9996
TLE2=2 54561  98.8818 348.0964 0146846 257.6983 100.7722 14.24184367  3538
STATUS=0
